SL-3 R/B                
1 19046U 88032B   17148.94726871  .00001030  00000-0  81622-4 0  9993
2 19046  97.5299 196.4204 0036842  36.1148 324.2555 15.02209413569468
SL-16 R/B               
1 19120U 88039B   17148.77904095  .00000116  00000-0  78096-4 0  9995
2 19120  71.0153   5.9321 0023428 222.1048 137.8277 14.19167936503639
COSMOS 1953             
1 19210U 88050A   17148.88318799  .00000887  00000-0  60013-4 0  9995
2 19210  82.5195  52.1063 0012809 332.0733  27.9805 15.05258116553809
SL-8 R/B                
1 19257U 88053B   17148.87864288  .00000041  00000-0  22520-4 0  9990
2 19257  74.0495 252.0348 0019806 150.0882 342.4365 14.37358917515711
COSMOS 1975             
1 19573U 88093A   17148.71287270  .00000074  00000-0  32522-5 0  9998
2 19573  82.5200   4.3278 0014719  12.2693 347.8888 15.04154832556884
SL-14 R/B               
1 19574U 88093B   17148.81872149  .00000086  00000-0  75811-5 0  9996
2 19574  82.5306 163.1788 0021732 176.3198 116.8276 14.83218145546571
SL-16 R/B               
1 19650U 88102B   17148.93210726  .00000020  00000-0  34308-4 0  9995
2 19650  71.0007  55.5852 0015657 218.6407 141.3597 14.15756479472990
INTERCOSMOS 24          
1 20261U 89080A   17148.82131127  .00000264  00000-0  70375-4 0  9990
2 20261  82.5938  22.4944 1204669 141.3639 228.0227 12.55874022263536
SL-14 R/B               
1 20262U 89080C   17148.87278848  .00000036  00000-0  10127-4 0  9994
2 20262  82.5967  68.4701 1236127 300.6533  47.8344 12.48862887259739
DELTA 1 R/B             
1 20323U 89089B   17148.91301881  .00000068  00000-0  26714-4 0  9994
2 20323  97.1080  97.8090 0072807 140.1098 220.5481 14.48197143431403
DELTA 2 R/B(1)          
1 20453U 90008B   17148.86534267  .00001078  00000-0  65024-4 0  9990
2 20453  35.6263 343.8075 0289663   7.3208 353.1610 14.83079245445336
COSMOS 2058             
1 20465U 90010A   17148.84108492  .00000309  00000-0  24171-4 0  9995
2 20465  82.4903 266.4510 0015619   5.9105 354.2299 14.97505357482443
SL-14 R/B               
1 20466U 90010B   17148.78438859  .00000086  00000-0  79235-5 0  9996
2 20466  82.5048  30.7653 0021661  45.3943 314.9033 14.81280356453569
SL-14 R/B               
1 20511U 90018B   17148.91610226  .00000047  00000-0  31492-5 0  9990
2 20511  82.5215 332.0558 0017678 171.3685 301.1176 14.79939338448113
HST                     
1 20580U 90037B   17148.75502315  .00000515  00000-0  20796-4 0  9992
2 20580  28.4689 135.9223 0002574 328.8807  45.9938 15.08770132287260
SL-16 R/B               
1 20625U 90046B   17148.69157000 -.00000225  00000-0 -92030-4 0  9992
2 20625  70.9987 190.0567 0012647 144.9395 215.2562 14.14618904394827
COSMOS 2084             
1 20663U 90055A   17148.85274880  .00000190  00000-0  33547-4 0  9995
2 20663  62.7922 292.6591 0140765  88.1346 273.5862 14.91567868456917
SL-6 R/B(2)             
1 20666U 90055D   17148.71788875  .00000081  00000-0  24750-4 0  9992
2 20666  62.7835 211.9494 0132187 107.2428 254.3182 14.91920548458802
SL-8 R/B                
1 20775U 90078B   17148.79327336  .00005146  00000-0  25491-3 0  9996
2 20775  82.9311  64.0982 0590252  42.1054 322.3948 14.30516421345993
SL-8 R/B                
1 21088U 91006B   17148.80596437  .00000068  00000-0  53035-4 0  9992
2 21088  82.9443  34.6498 0023040  17.9852  47.5587 13.77053896322930
OKEAN-3                 
1 21397U 91039A   17148.61431405  .00000306  00000-0  27290-4 0  9992
2 21397  82.5202 157.0077 0016583 306.1192  53.8493 14.92479299406867
COSMOS 2151             
1 21422U 91042A   17148.88208026  .00000249  00000-0  22085-4 0  9998
2 21422  82.5012 264.8114 0014259   5.5153 354.6220 14.91820459384546
SL-14 R/B               
1 21423U 91042B   17148.92385814  .00000096  00000-0  97078-5 0  9990
2 21423  82.4927 339.4190 0016552 317.4130  42.5798 14.79692121378693
ERS-1                   
1 21574U 91050A   17148.91595264  .00000061  00000-0  34512-4 0  9992
2 21574  98.4585  96.3797 0033434  14.7505 345.4650 14.37584091354832
ARIANE 40 R/B           
1 21610U 91050F   17148.81176257  .00000018  00000-0  19659-4 0  9996
2 21610  98.6063 205.2508 0003358  24.1193  99.9687 14.40795535357045
INTERCOSMOS 25          
1 21819U 91086A   17148.85339463  .00000719  00000-0  13290-3 0  9992
2 21819  82.5587  74.6263 1525141 127.9965 246.8986 12.04500998109937
SL-14 R/B               
1 21820U 91086B   17148.89336217  .00000097  00000-0  19205-4 0  9994
2 21820  82.5594 129.8758 1575935 315.2888  33.1130 11.93307825104485
SL-8 R/B                
1 21876U 92008B   17148.91308358  .00000081  00000-0  67790-4 0  9993
2 21876  82.9246 131.5399 0036315  88.0989 330.7406 13.75603356268501
SL-8 R/B                
1 21938U 92020B   17148.77638838 -.00000004  00000-0 -20182-4 0  9990
2 21938  82.9304  14.8786 0027954 245.3971 169.0835 13.75252446260327
SL-16 R/B               
1 22220U 92076B   17148.90390508  .00000189  00000-0  11916-3 0  9996
2 22220  70.9999  99.8396 0014766 297.6171 120.8910 14.16416261267710
SL-16 R/B               
1 22285U 92093B   17148.72403876 -.00000203  00000-0 -80168-4 0  9994
2 22285  71.0228 253.1072 0003965 191.2074 168.8961 14.15012432259501
COSMOS 2228             
1 22286U 92094A   17148.81180474  .00000261  00000-0  25800-4 0  9996
2 22286  82.5227  32.3732 0020411 181.6069 178.5086 14.87661442319615
SL-16 R/B               
1 22566U 93016B   17148.90699290  .00000100  00000-0  76425-4 0  9994
2 22566  71.0073 107.3944 0009918 175.2363 184.8856 14.14950484248535
COSMOS 2242             
1 22626U 93024A   17148.89809750  .00000262  00000-0  26018-4 0  9994
2 22626  82.5238  60.0063 0018902 180.1802 179.9412 14.87659121302982
SL-16 R/B               
1 22803U 93059B   17148.80955664 -.00000187  00000-0 -69423-4 0  9991
2 22803  70.9902 290.2679 0015426  50.6881 309.5607 14.16770481225283
ARIANE 40 R/B           
1 22830U 93061H   17148.92044876 -.00000046  00000-0  96882-7 0  9996
2 22830  98.8843 163.8842 0010571 350.6871  69.9996 14.31410631235230
COSMOS 2278             
1 23087U 94023A   17148.88686333  .00000082  00000-0  68220-4 0  9996
2 23087  71.0535  39.3180 0010701 246.7287 113.2710 14.13737243191520
SL-16 R/B               
1 23088U 94023B   17148.89872442 -.00000261  00000-0 -11089-3 0  9997
2 23088  70.9990 322.5384 0002272 171.4049 188.7113 14.14652245192547
SL-16 R/B               
1 23343U 94074B   17148.77233443 -.00000012  00000-0  58837-5 0  9993
2 23343  98.1547 185.6634 0007982 128.8333   3.1844 14.76699172213758
SL-16 R/B               
1 23405U 94077B   17148.91045892  .00000225  00000-0  14029-3 0  9998
2 23405  70.9835 255.9247 0003515 314.9571  45.1266 14.15194643162535
ERS-2                   
1 23560U 95021A   17148.95118491  .00001513  00000-0  72998-4 0  9991
2 23560  98.5550 138.7062 0004284  30.2041 329.9437 15.20617445172434
ARIANE 40+ R/B          
1 23561U 95021B   17148.65731005  .00000040  00000-0  28767-4 0  9990
2 23561  98.7928 149.3978 0006197 325.6610 158.3518 14.37814184158229
SL-16 R/B               
1 23705U 95058B   17148.94099285  .00000019  00000-0  34219-4 0  9994
2 23705  71.0237  69.4142 0013958 319.7256  40.2832 14.15103036114160
SL-16 R/B               
1 24298U 96051B   17148.88962295  .00000004  00000-0  28176-4 0  9998
2 24298  70.8503 102.7664 0018734 216.4703 143.5143 14.12497485 68833
ORBVIEW 2 (SEASTAR)     
1 24883U 97037A   17148.92135879  .00000073  00000-0  42225-4 0  9995
2 24883  98.5393 257.8298 0003036 142.1183 218.0215 14.33390843 48893
SL-16 R/B               
1 25400U 98043G   17148.70014877 -.00000002  00000-0  16922-4 0  9997
2 25400  98.4872  97.5444 0009826 359.9456   0.1722 14.25410979982070
SL-16 R/B               
1 25407U 98045B   17148.93295757  .00000076  00000-0  63128-4 0  9999
2 25407  71.0117  81.8939 0009697 242.7338 117.2798 14.15758406973189
ISS (ZARYA)             
1 25544U 98067A   17148.88583786  .00001267  00000-0  26573-4 0  9997
2 25544  51.6404 134.5244 0005176 204.2902 232.5235 15.53938309 58756
SL-8 R/B                
1 25723U 99022C   17148.81313190  .00010008  00000-0  15857-3 0  9996
2 25723  48.4169 270.6903 0011399 298.5401  61.4396 15.53887720  3482
CZ-4B R/B               
1 25732U 99025C   17148.91141448 -.00000019  00000-0  13107-4 0  9994
2 25732  98.9915 150.4239 0038022 144.8981 274.0610 14.17631219933804
OKEAN-O                 
1 25860U 99039A   17148.89539474  .00000060  00000-0  16193-4 0  9991
2 25860  98.1852 133.5067 0001276 112.5582 247.5762 14.76474305960886
SL-16 R/B               
1 25861U 99039B   17148.87611260  .00000041  00000-0  13012-4 0  9990
2 25861  98.1036 120.0584 0016542 140.0123 248.2268 14.78410707962929
TERRA                   
1 25994U 99068A   17148.15336910 -.00001116  00000-0 -23781-3 0  9995
2 25994  98.2097 223.4837 0001189  86.6985 273.4308 14.57106084927759
ENVISAT                 
1 27386U 02009A   17148.90210327 -.00000217  00000-0 -58246-4 0  9993
2 27386  98.2314 194.9863 0001286  99.1970 260.9370 14.37895017798306
IDEFIX & ARIANE 42P R/B 
1 27422U 02021B   17148.90759363 -.00000023  00000-0  70619-5 0  9999
2 27422  98.2296 150.2502 0011082 296.9265  63.0786 14.29253699785810
AQUA                    
1 27424U 02022A   17148.94175632  .00000143  00000-0  41676-4 0  9999
2 27424  98.2035  90.5214 0002007 126.5506 305.1781 14.57115385801423
CZ-4B R/B               
1 27432U 02024C   17148.92352818 -.00000018  00000-0  13887-4 0  9996
2 27432  98.9861 122.3819 0051566  86.9316 329.9816 14.14043118775995
MIDORI II (ADEOS-II)    
1 27597U 02056A   17148.56325400  .00000032  00000-0  29998-4 0  9995
2 27597  98.3677 118.9596 0001985  61.3981 298.7400 14.27286281752625
H-2A R/B                
1 27601U 02056E   17148.84846316  .00000029  00000-0  25824-4 0  9996
2 27601  98.3774 217.3114 0071935 353.8672 133.1324 14.31780481755049
